{
  "norad_id": 58746,
  "name": "STARLINK-31181",
  "history": [
    {
      "epoch": "2026-03-28T22:10:04.211904",
      "apogee_km": 484.47386884655225,
      "perigee_km": 481.77327668511134,
      "latitude_deg": 0.8636026173832005,
      "longitude_deg": 143.27134656021371,
      "semi_major_axis_km": 6861.260572765831,
      "eccentricity": 0.0001968,
      "inclination_deg": 43.0049,
      "raan_deg": 318.897,
      "arg_perigee_deg": 268.7248,
      "mean_anomaly_deg": 91.3378,
      "mean_motion_rev_day": 15.27555128
    }
  ]
}